ONEWEB-0125             
1 47271U 20100P   26084.54245364  .00000454  00000+0  12268-2 0  9990
2 47271  87.9019   7.2582 0001512  81.2976 278.8323 13.12441861253669
ONEWEB-0126             
1 47272U 20100Q   26084.48668190 -.00000023  00000+0 -99601-4 0  9992
2 47272  87.9010   7.2907 0001890  74.8087 285.3251 13.12443052253726
ONEWEB-0127             
1 47273U 20100R   26084.52891218  .00000329  00000+0  87797-3 0  9996
2 47273  87.9004   7.2851 0001931  75.9862 284.1481 13.12444618253751
ONEWEB-0128             
1 47274U 20100S   26084.47468564  .00000377  00000+0  10122-2 0  9995
2 47274  87.9003   7.3100 0002009  87.1773 272.9586 13.12443902253769
ONEWEB-0129             
1 47275U 20100T   26084.53060251  .00000354  00000+0  94960-3 0  9992
2 47275  87.9015   7.2639 0002679  59.2992 300.8400 13.12444739253704
ONEWEB-0130             
1 47276U 20100U   26084.48146353  .00000160  00000+0  40844-3 0  9992
2 47276  87.9016   7.2680 0001915  77.7081 282.4262 13.12443002253666
ONEWEB-0131             
1 47277U 20100V   26084.47807449  .00000254  00000+0  66985-3 0  9990
2 47277  87.9004   7.2961 0001864  78.8012 281.3326 13.12442944253703
ONEWEB-0132             
1 47278U 20100W   26084.50687391 -.00000386  00000+0 -11093-2 0  9994
2 47278  87.9011   7.2894 0001841  80.9053 279.2283 13.12444074253604
ONEWEB-0133             
1 47279U 20100X   26084.52368545  .00000141  00000+0  35580-3 0  9999
2 47279  87.9021   7.2530 0001890  83.1487 276.9857 13.12444619253766
ONEWEB-0134             
1 47280U 20100Y   26084.49331563 -.00000203  00000+0 -59843-3 0  9996
2 47280  87.9021   7.2560 0002051  79.5134 280.6225 13.12443794253730
ONEWEB-0135             
1 47281U 20100Z   26084.31204446  .00000463  00000+0  12504-2 0  9995
2 47281  87.9005   7.3259 0002134  83.1510 276.9862 13.12443639253733
ONEWEB-0136             
1 47282U 20100AA  26084.48315113  .00000082  00000+0  19126-3 0  9993
2 47282  87.9014   7.2664 0002180  79.4979 280.6395 13.12441275253682
ONEWEB-0137             
1 47283U 20100AB  26084.51703588 -.00000060  00000+0 -20335-3 0  9997
2 47283  87.9022   7.2655 0001710  76.0600 284.0718 13.12443548253596
ONEWEB-0138             
1 47284U 20100AC  26084.49500746 -.00000296  00000+0 -85830-3 0  9998
2 47284  87.9014   7.2786 0002008  77.0246 283.1106 13.12444075253677
ONEWEB-0139             
1 47285U 20100AD  26084.30710062  .00000458  00000+0  12391-2 0  9992
2 47285  87.9015   7.3032 0001853  77.6203 282.5133 13.12445093253720
ONEWEB-0140             
1 47286U 20100AE  26084.33745669 -.00000244  00000+0 -71266-3 0  9999
2 47286  87.9018   7.2862 0001822  83.7503 276.3834 13.12442876253692
ONEWEB-0141             
1 47287U 20100AF  26084.53553474  .00000389  00000+0  10452-2 0  9990
2 47287  87.9017   7.2529 0001601  69.8271 290.3030 13.12445111253705
