[{"OBJECT_NAME":"ONEWEB-0125","OBJECT_ID":"2020-100P","EPOCH":"2026-03-25T13:01:07.994496","MEAN_MOTION":13.12441861,"ECCENTRICITY":0.00015124,"INCLINATION":87.9019,"RA_OF_ASC_NODE":7.2582,"ARG_OF_PERICENTER":81.2976,"MEAN_ANOMALY":278.8323,"EPHEMERIS_TYPE":0,"CLASSIFICATION_TYPE":"U","NORAD_CAT_ID":47271,"ELEMENT_SET_NO":999,"REV_AT_EPOCH":25366,"BSTAR":0.001226764,"MEAN_MOTION_DOT":4.54e-6,"MEAN_MOTION_DDOT":0},{"OBJECT_NAME":"ONEWEB-0126","OBJECT_ID":"2020-100Q","EPOCH":"2026-03-25T11:40:49.316160","MEAN_MOTION":13.12443052,"ECCENTRICITY":0.00018905,"INCLINATION":87.901,"RA_OF_ASC_NODE":7.2907,"ARG_OF_PERICENTER":74.8087,"MEAN_ANOMALY":285.3251,"EPHEMERIS_TYPE":0,"CLASSIFICATION_TYPE":"U","NORAD_CAT_ID":47272,"ELEMENT_SET_NO":999,"REV_AT_EPOCH":25372,"BSTAR":-9.9601446e-5,"MEAN_MOTION_DOT":-2.3e-7,"MEAN_MOTION_DDOT":0},{"OBJECT_NAME":"ONEWEB-0127","OBJECT_ID":"2020-100R","EPOCH":"2026-03-25T12:41:38.012352","MEAN_MOTION":13.12444618,"ECCENTRICITY":0.00019318,"INCLINATION":87.9004,"RA_OF_ASC_NODE":7.2851,"ARG_OF_PERICENTER":75.9862,"MEAN_ANOMALY":284.1481,"EPHEMERIS_TYPE":0,"CLASSIFICATION_TYPE":"U","NORAD_CAT_ID":47273,"ELEMENT_SET_NO":999,"REV_AT_EPOCH":25375,"BSTAR":0.00087797319,"MEAN_MOTION_DOT":3.29e-6,"MEAN_MOTION_DDOT":0},{"OBJECT_NAME":"ONEWEB-0128","OBJECT_ID":"2020-100S","EPOCH":"2026-03-25T11:23:32.839296","MEAN_MOTION":13.12443902,"ECCENTRICITY":0.00020095,"INCLINATION":87.9003,"RA_OF_ASC_NODE":7.31,"ARG_OF_PERICENTER":87.1773,"MEAN_ANOMALY":272.9586,"EPHEMERIS_TYPE":0,"CLASSIFICATION_TYPE":"U","NORAD_CAT_ID":47274,"ELEMENT_SET_NO":999,"REV_AT_EPOCH":25376,"BSTAR":0.0010121564,"MEAN_MOTION_DOT":3.77e-6,"MEAN_MOTION_DDOT":0},{"OBJECT_NAME":"ONEWEB-0129","OBJECT_ID":"2020-100T","EPOCH":"2026-03-25T12:44:04.056864","MEAN_MOTION":13.12444739,"ECCENTRICITY":0.00026797,"INCLINATION":87.9015,"RA_OF_ASC_NODE":7.2639,"ARG_OF_PERICENTER":59.2992,"MEAN_ANOMALY":300.84,"EPHEMERIS_TYPE":0,"CLASSIFICATION_TYPE":"U","NORAD_CAT_ID":47275,"ELEMENT_SET_NO":999,"REV_AT_EPOCH":25370,"BSTAR":0.00094960488,"MEAN_MOTION_DOT":3.54e-6,"MEAN_MOTION_DDOT":0},{"OBJECT_NAME":"ONEWEB-0130","OBJECT_ID":"2020-100U","EPOCH":"2026-03-25T11:33:18.448992","MEAN_MOTION":13.12443002,"ECCENTRICITY":0.00019153,"INCLINATION":87.9016,"RA_OF_ASC_NODE":7.268,"ARG_OF_PERICENTER":77.7081,"MEAN_ANOMALY":282.4262,"EPHEMERIS_TYPE":0,"CLASSIFICATION_TYPE":"U","NORAD_CAT_ID":47276,"ELEMENT_SET_NO":999,"REV_AT_EPOCH":25366,"BSTAR":0.00040844407,"MEAN_MOTION_DOT":1.6e-6,"MEAN_MOTION_DDOT":0},{"OBJECT_NAME":"ONEWEB-0131","OBJECT_ID":"2020-100V","EPOCH":"2026-03-25T11:28:25.635936","MEAN_MOTION":13.12442944,"ECCENTRICITY":0.00018646,"INCLINATION":87.9004,"RA_OF_ASC_NODE":7.2961,"ARG_OF_PERICENTER":78.8012,"MEAN_ANOMALY":281.3326,"EPHEMERIS_TYPE":0,"CLASSIFICATION_TYPE":"U","NORAD_CAT_ID":47277,"ELEMENT_SET_NO":999,"REV_AT_EPOCH":25370,"BSTAR":0.00066984849,"MEAN_MOTION_DOT":2.54e-6,"MEAN_MOTION_DDOT":0},{"OBJECT_NAME":"ONEWEB-0132","OBJECT_ID":"2020-100W","EPOCH":"2026-03-25T12:09:53.905824","MEAN_MOTION":13.12444074,"ECCENTRICITY":0.00018418,"INCLINATION":87.9011,"RA_OF_ASC_NODE":7.2894,"ARG_OF_PERICENTER":80.9053,"MEAN_ANOMALY":279.2283,"EPHEMERIS_TYPE":0,"CLASSIFICATION_TYPE":"U","NORAD_CAT_ID":47278,"ELEMENT_SET_NO":999,"REV_AT_EPOCH":25360,"BSTAR":-0.0011092504,"MEAN_MOTION_DOT":-3.86e-6,"MEAN_MOTION_DDOT":0},{"OBJECT_NAME":"ONEWEB-0133","OBJECT_ID":"2020-100X","EPOCH":"2026-03-25T12:34:06.422880","MEAN_MOTION":13.12444619,"ECCENTRICITY":0.00018901,"INCLINATION":87.9021,"RA_OF_ASC_NODE":7.253,"ARG_OF_PERICENTER":83.1487,"MEAN_ANOMALY":276.9857,"EPHEMERIS_TYPE":0,"CLASSIFICATION_TYPE":"U","NORAD_CAT_ID":47279,"ELEMENT_SET_NO":999,"REV_AT_EPOCH":25376,"BSTAR":0.00035580173,"MEAN_MOTION_DOT":1.41e-6,"MEAN_MOTION_DDOT":0},{"OBJECT_NAME":"ONEWEB-0134","OBJECT_ID":"2020-100Y","EPOCH":"2026-03-25T11:50:22.470432","MEAN_MOTION":13.12443794,"ECCENTRICITY":0.00020513,"INCLINATION":87.9021,"RA_OF_ASC_NODE":7.256,"ARG_OF_PERICENTER":79.5134,"MEAN_ANOMALY":280.6225,"EPHEMERIS_TYPE":0,"CLASSIFICATION_TYPE":"U","NORAD_CAT_ID":47280,"ELEMENT_SET_NO":999,"REV_AT_EPOCH":25373,"BSTAR":-0.00059842901,"MEAN_MOTION_DOT":-2.03e-6,"MEAN_MOTION_DDOT":0},{"OBJECT_NAME":"ONEWEB-0135","OBJECT_ID":"2020-100Z","EPOCH":"2026-03-25T07:29:20.641344","MEAN_MOTION":13.12443639,"ECCENTRICITY":0.00021348,"INCLINATION":87.9005,"RA_OF_ASC_NODE":7.3259,"ARG_OF_PERICENTER":83.151,"MEAN_ANOMALY":276.9862,"EPHEMERIS_TYPE":0,"CLASSIFICATION_TYPE":"U","NORAD_CAT_ID":47281,"ELEMENT_SET_NO":999,"REV_AT_EPOCH":25373,"BSTAR":0.0012503872,"MEAN_MOTION_DOT":4.63e-6,"MEAN_MOTION_DDOT":0},{"OBJECT_NAME":"ONEWEB-0136","OBJECT_ID":"2020-100AA","EPOCH":"2026-03-25T11:35:44.257632","MEAN_MOTION":13.12441275,"ECCENTRICITY":0.00021809,"INCLINATION":87.9014,"RA_OF_ASC_NODE":7.2664,"ARG_OF_PERICENTER":79.4979,"MEAN_ANOMALY":280.6395,"EPHEMERIS_TYPE":0,"CLASSIFICATION_TYPE":"U","NORAD_CAT_ID":47282,"ELEMENT_SET_NO":999,"REV_AT_EPOCH":25368,"BSTAR":0.0001912552,"MEAN_MOTION_DOT":8.2e-7,"MEAN_MOTION_DDOT":0},{"OBJECT_NAME":"ONEWEB-0137","OBJECT_ID":"2020-100AB","EPOCH":"2026-03-25T12:24:31.900032","MEAN_MOTION":13.12443548,"ECCENTRICITY":0.00017102,"INCLINATION":87.9022,"RA_OF_ASC_NODE":7.2655,"ARG_OF_PERICENTER":76.06,"MEAN_ANOMALY":284.0718,"EPHEMERIS_TYPE":0,"CLASSIFICATION_TYPE":"U","NORAD_CAT_ID":47283,"ELEMENT_SET_NO":999,"REV_AT_EPOCH":25359,"BSTAR":-0.00020334844,"MEAN_MOTION_DOT":-6.0e-7,"MEAN_MOTION_DDOT":0},{"OBJECT_NAME":"ONEWEB-0138","OBJECT_ID":"2020-100AC","EPOCH":"2026-03-25T11:52:48.644544","MEAN_MOTION":13.12444075,"ECCENTRICITY":0.0002008,"INCLINATION":87.9014,"RA_OF_ASC_NODE":7.2786,"ARG_OF_PERICENTER":77.0246,"MEAN_ANOMALY":283.1106,"EPHEMERIS_TYPE":0,"CLASSIFICATION_TYPE":"U","NORAD_CAT_ID":47284,"ELEMENT_SET_NO":999,"REV_AT_EPOCH":25367,"BSTAR":-0.00085830454,"MEAN_MOTION_DOT":-2.96e-6,"MEAN_MOTION_DDOT":0},{"OBJECT_NAME":"ONEWEB-0139","OBJECT_ID":"2020-100AD","EPOCH":"2026-03-25T07:22:13.493568","MEAN_MOTION":13.12445093,"ECCENTRICITY":0.00018538,"INCLINATION":87.9015,"RA_OF_ASC_NODE":7.3032,"ARG_OF_PERICENTER":77.6203,"MEAN_ANOMALY":282.5133,"EPHEMERIS_TYPE":0,"CLASSIFICATION_TYPE":"U","NORAD_CAT_ID":47285,"ELEMENT_SET_NO":999,"REV_AT_EPOCH":25372,"BSTAR":0.0012390505,"MEAN_MOTION_DOT":4.58e-6,"MEAN_MOTION_DDOT":0},{"OBJECT_NAME":"ONEWEB-0140","OBJECT_ID":"2020-100AE","EPOCH":"2026-03-25T08:05:56.258016","MEAN_MOTION":13.12442876,"ECCENTRICITY":0.00018226,"INCLINATION":87.9018,"RA_OF_ASC_NODE":7.2862,"ARG_OF_PERICENTER":83.7503,"MEAN_ANOMALY":276.3834,"EPHEMERIS_TYPE":0,"CLASSIFICATION_TYPE":"U","NORAD_CAT_ID":47286,"ELEMENT_SET_NO":999,"REV_AT_EPOCH":25369,"BSTAR":-0.00071265513,"MEAN_MOTION_DOT":-2.44e-6,"MEAN_MOTION_DDOT":0},{"OBJECT_NAME":"ONEWEB-0141","OBJECT_ID":"2020-100AF","EPOCH":"2026-03-25T12:51:10.201536","MEAN_MOTION":13.12445111,"ECCENTRICITY":0.00016012,"INCLINATION":87.9017,"RA_OF_ASC_NODE":7.2529,"ARG_OF_PERICENTER":69.8271,"MEAN_ANOMALY":290.303,"EPHEMERIS_TYPE":0,"CLASSIFICATION_TYPE":"U","NORAD_CAT_ID":47287,"ELEMENT_SET_NO":999,"REV_AT_EPOCH":25370,"BSTAR":0.0010452233,"MEAN_MOTION_DOT":3.89e-6,"MEAN_MOTION_DDOT":0}]
